{"type": "FeatureCollection", "features": [ {"type": "Feature", "properties": {"norad_id": 17070, "name": "POLAR BEAR", "group": "nnss", "lat": -75.36641734603498, "lon": -177.3000375521381, "alt_km": 1009.8204967353922, "timestamp": "2025-12-02T23:34:15.784987+00:00", "meta": {"OBJECT_NAME": "POLAR BEAR", "OBJECT_ID": "1986-088A", "EPOCH": "2025-12-02T12:01:19.378272", "MEAN_MOTION": 13.7524755, "ECCENTRICITY": 0.004021, "INCLINATION": 89.6181, "RA_OF_ASC_NODE": 184.183, "ARG_OF_PERICENTER": 149.0997, "MEAN_ANOMALY": 274.2879, "EPHEMERIS_TYPE": 0, "CLASSIFICATION_TYPE": "U", "NORAD_CAT_ID": 17070, "ELEMENT_SET_NO": 999, "REV_AT_EPOCH": 95838, "BSTAR": 0.00014048, "MEAN_MOTION_DOT": 1.47e-06, "MEAN_MOTION_DDOT": 0}, "tle": {"line1": "1 17070U 86088A   25336.50091873  .00000147  00000+0  14048-3 0  9998", "line2": "2 17070  89.6181 184.1830 0040210 149.0997 274.2879 13.75247550958382"}}, "geometry": {"type": "Point", "coordinates": [-177.3000375521381, -75.36641734603498]}}, {"type": "Feature", "properties": {"norad_id": 18361, "name": "OSCAR 27", "group": "nnss", "lat": 14.848029187332815, "lon": -100.9934867588625, "alt_km": 1087.2805079350528, "timestamp": "2025-12-02T23:34:15.784997+00:00", "meta": {"OBJECT_NAME": "OSCAR 27", "OBJECT_ID": "1987-080A", "EPOCH": "2025-12-02T08:27:25.357248", "MEAN_MOTION": 13.44903269, "ECCENTRICITY": 0.0102304, "INCLINATION": 90.3742, "RA_OF_ASC_NODE": 78.8837, "ARG_OF_PERICENTER": 253.9632, "MEAN_ANOMALY": 105.023, "EPHEMERIS_TYPE": 0, "CLASSIFICATION_TYPE": "U", "NORAD_CAT_ID": 18361, "ELEMENT_SET_NO": 999, "REV_AT_EPOCH": 87417, "BSTAR": 0.00020526, "MEAN_MOTION_DOT": 1.31e-06, "MEAN_MOTION_DDOT": 0}, "tle": {"line1": "1 18361U 87080A   25336.35237682  .00000131  00000+0  20526-3 0  9999", "line2": "2 18361  90.3742  78.8837 0102304 253.9632 105.0230 13.44903269874176"}}, "geometry": {"type": "Point", "coordinates": [-100.9934867588625, 14.848029187332815]}}, {"type": "Feature", "properties": {"norad_id": 18362, "name": "OSCAR 29", "group": "nnss", "lat": -13.41645187997743, "lon": -100.72423143309791, "alt_km": 1086.1179617889766, "timestamp": "2025-12-02T23:34:15.785028+00:00", "meta": {"OBJECT_NAME": "OSCAR 29", "OBJECT_ID": "1987-080B", "EPOCH": "2025-12-02T08:38:59.850816", "MEAN_MOTION": 13.44445358, "ECCENTRICITY": 0.010368, "INCLINATION": 90.3756, "RA_OF_ASC_NODE": 79.3421, "ARG_OF_PERICENTER": 277.3797, "MEAN_ANOMALY": 149.7895, "EPHEMERIS_TYPE": 0, "CLASSIFICATION_TYPE": "U", "NORAD_CAT_ID": 18362, "ELEMENT_SET_NO": 999, "REV_AT_EPOCH": 87370, "BSTAR": 0.00016294, "MEAN_MOTION_DOT": 1.05e-06, "MEAN_MOTION_DDOT": 0}, "tle": {"line1": "1 18362U 87080B   25336.36041494  .00000105  00000+0  16294-3 0  9993", "line2": "2 18362  90.3756  79.3421 0103680 277.3797 149.7895 13.44445358873707"}}, "geometry": {"type": "Point", "coordinates": [-100.72423143309791, -13.41645187997743]}}, {"type": "Feature", "properties": {"norad_id": 19070, "name": "OSCAR 23", "group": "nnss", "lat": -13.936781692983812, "lon": -163.99009725249977, "alt_km": 1021.194688157233, "timestamp": "2025-12-02T23:34:15.785042+00:00", "meta": {"OBJECT_NAME": "OSCAR 23", "OBJECT_ID": "1988-033A", "EPOCH": "2025-12-02T04:51:39.200256", "MEAN_MOTION": 13.2778468, "ECCENTRICITY": 0.0188665, "INCLINATION": 90.3226, "RA_OF_ASC_NODE": 16.0656, "ARG_OF_PERICENTER": 209.2712, "MEAN_ANOMALY": 220.7503, "EPHEMERIS_TYPE": 0, "CLASSIFICATION_TYPE": "U", "NORAD_CAT_ID": 19070, "ELEMENT_SET_NO": 999, "REV_AT_EPOCH": 82113, "BSTAR": 0.00022751, "MEAN_MOTION_DOT": 1.21e-06, "MEAN_MOTION_DDOT": 0}, "tle": {"line1": "1 19070U 88033A   25336.20253704  .00000121  00000+0  22751-3 0  9994", "line2": "2 19070  90.3226  16.0656 0188665 209.2712 220.7503 13.27784680821132"}}, "geometry": {"type": "Point", "coordinates": [-163.99009725249977, -13.936781692983812]}}, {"type": "Feature", "properties": {"norad_id": 19071, "name": "OSCAR 32", "group": "nnss", "lat": -59.228589534707126, "lon": 16.76366388330536, "alt_km": 1200.3378078750966, "timestamp": "2025-12-02T23:34:15.785053+00:00", "meta": {"OBJECT_NAME": "OSCAR 32", "OBJECT_ID": "1988-033B", "EPOCH": "2025-12-02T09:27:52.424064", "MEAN_MOTION": 13.27951817, "ECCENTRICITY": 0.0187498, "INCLINATION": 90.3228, "RA_OF_ASC_NODE": 16.2028, "ARG_OF_PERICENTER": 195.5616, "MEAN_ANOMALY": 174.9323, "EPHEMERIS_TYPE": 0, "CLASSIFICATION_TYPE": "U", "NORAD_CAT_ID": 19071, "ELEMENT_SET_NO": 999, "REV_AT_EPOCH": 82128, "BSTAR": 0.00017843, "MEAN_MOTION_DOT": 9.7e-07, "MEAN_MOTION_DDOT": 0}, "tle": {"line1": "1 19071U 88033B   25336.39435676  .00000097  00000+0  17843-3 0  9993", "line2": "2 19071  90.3228  16.2028 0187498 195.5616 174.9323 13.27951817821287"}}, "geometry": {"type": "Point", "coordinates": [16.76366388330536, -59.228589534707126]}}, {"type": "Feature", "properties": {"norad_id": 19223, "name": "NOVA 2", "group": "nnss", "lat": -48.42734561252445, "lon": 78.27016998720673, "alt_km": 1180.948958473422, "timestamp": "2025-12-02T23:34:15.785063+00:00", "meta": {"OBJECT_NAME": "NOVA 2", "OBJECT_ID": "1988-052A", "EPOCH": "2025-12-02T07:46:37.057728", "MEAN_MOTION": 13.2293391, "ECCENTRICITY": 0.0031413, "INCLINATION": 89.9873, "RA_OF_ASC_NODE": 78.2853, "ARG_OF_PERICENTER": 44.9309, "MEAN_ANOMALY": 14.7161, "EPHEMERIS_TYPE": 0, "CLASSIFICATION_TYPE": "U", "NORAD_CAT_ID": 19223, "ELEMENT_SET_NO": 999, "REV_AT_EPOCH": 80810, "BSTAR": 0.00014832, "MEAN_MOTION_DOT": 7.1e-07, "MEAN_MOTION_DDOT": 0}, "tle": {"line1": "1 19223U 88052A   25336.32404002  .00000071  00000+0  14832-3 0  9992", "line2": "2 19223  89.9873  78.2853 0031413  44.9309  14.7161 13.22933910808107"}}, "geometry": {"type": "Point", "coordinates": [78.27016998720673, -48.42734561252445]}}, {"type": "Feature", "properties": {"norad_id": 19419, "name": "OSCAR 25", "group": "nnss", "lat": 58.187845418433035, "lon": 20.15401344465167, "alt_km": 1150.7779828680223, "timestamp": "2025-12-02T23:34:15.785073+00:00", "meta": {"OBJECT_NAME": "OSCAR 25", "OBJECT_ID": "1988-074A", "EPOCH": "2025-12-02T09:01:29.380800", "MEAN_MOTION": 13.42620226, "ECCENTRICITY": 0.0094205, "INCLINATION": 90.0358, "RA_OF_ASC_NODE": 20.2096, "ARG_OF_PERICENTER": 275.9556, "MEAN_ANOMALY": 93.8712, "EPHEMERIS_TYPE": 0, "CLASSIFICATION_TYPE": "U", "NORAD_CAT_ID": 19419, "ELEMENT_SET_NO": 999, "REV_AT_EPOCH": 82501, "BSTAR": 0.00023198, "MEAN_MOTION_DOT": 1.43e-06, "MEAN_MOTION_DDOT": 0}, "tle": {"line1": "1 19419U 88074A   25336.37603450  .00000143  00000+0  23198-3 0  9991", "line2": "2 19419  90.0358  20.2096 0094205 275.9556  93.8712 13.42620226825013"}}, "geometry": {"type": "Point", "coordinates": [20.15401344465167, 58.187845418433035]}}, {"type": "Feature", "properties": {"norad_id": 19420, "name": "OSCAR 31", "group": "nnss", "lat": -56.73721129176874, "lon": 20.617217874468132, "alt_km": 1049.982368298376, "timestamp": "2025-12-02T23:34:15.785084+00:00", "meta": {"OBJECT_NAME": "OSCAR 31", "OBJECT_ID": "1988-074B", "EPOCH": "2025-12-02T09:35:47.332896", "MEAN_MOTION": 13.42581997, "ECCENTRICITY": 0.0092429, "INCLINATION": 90.0374, "RA_OF_ASC_NODE": 20.558, "ARG_OF_PERICENTER": 269.9957, "MEAN_ANOMALY": 100.0922, "EPHEMERIS_TYPE": 0, "CLASSIFICATION_TYPE": "U", "NORAD_CAT_ID": 19420, "ELEMENT_SET_NO": 999, "REV_AT_EPOCH": 82512, "BSTAR": 0.00019665, "MEAN_MOTION_DOT": 1.22e-06, "MEAN_MOTION_DDOT": 0}, "tle": {"line1": "1 19420U 88074B   25336.39985339  .00000122  00000+0  19665-3 0  9995", "line2": "2 19420  90.0374  20.5580 0092429 269.9957 100.0922 13.42581997825125"}}, "geometry": {"type": "Point", "coordinates": [20.617217874468132, -56.73721129176874]}}]}